OBJECT_NAME,OBJECT_ID,EPOCH,MEAN_MOTION,ECCENTRICITY,INCLINATION,RA_OF_ASC_NODE,ARG_OF_PERICENTER,MEAN_ANOMALY,EPHEMERIS_TYPE,CLASSIFICATION_TYPE,NORAD_CAT_ID,ELEMENT_SET_NO,REV_AT_EPOCH,BSTAR,MEAN_MOTION_DOT,MEAN_MOTION_DDOT
STARLINK-35257,2025-253N,2026-03-20T21:48:57.684672,15.27596009,.00012319,43.0005,148.8570,265.2921,94.7790,0,U,66331,999,2196,.8654419E-3,.23641E-3,0
STARLINK-35322,2025-253P,2026-03-20T22:03:46.190304,15.27593583,.00014273,43.0015,148.9393,275.5566,84.5123,0,U,66332,999,2196,.59093988E-3,.16041E-3,0
STARLINK-35400,2025-253Q,2026-03-21T00:00:00.999648,15.27574937,.00014152,43.0019,149.0771,266.5822,290.3408,0,U,66333,999,587,.92555913E-3,.25291E-3,0
STARLINK-35407,2025-253R,2026-03-20T21:52:39.256608,15.27588656,.00005009,43.0036,148.8837,349.5725,10.5116,0,U,66334,999,2196,.18844485E-4,.257E-5,0
STARLINK-35417,2025-253S,2026-03-20T12:59:11.073696,15.27584202,.00014678,42.9996,151.2602,277.6480,82.4205,0,U,66335,999,2190,.41403459E-3,.1115E-3,0
STARLINK-35404,2025-253T,2026-03-20T14:20:23.378784,15.27591901,.0001626,43.0010,150.8190,280.2145,79.8523,0,U,66336,999,2191,.58639E-3,.15915E-3,0
STARLINK-34783,2025-253U,2026-03-20T21:32:31.191936,15.27604162,.00019016,43.0026,149.6389,274.1352,85.9282,0,U,66337,999,2195,.72523541E-3,.19763E-3,0
STARLINK-35477,2025-253V,2026-03-20T14:18:32.207904,15.27584499,.0001283,43.0005,150.8158,258.2090,101.8618,0,U,66338,999,2191,.38449E-3,.10334E-3,0
STARLINK-35443,2025-253W,2026-03-20T11:19:28.855200,15.27585705,.00009644,42.9992,151.5981,275.4098,84.6644,0,U,66339,999,2189,.60260808E-3,.1636E-3,0
STARLINK-35218,2025-253X,2026-03-20T13:26:56.973696,15.27595459,.0001441,43.0027,151.4020,275.5906,84.4781,0,U,66340,999,2190,.98642E-3,.26994E-3,0
STARLINK-35522,2025-253Y,2026-03-20T21:02:54.724992,15.27610806,.00021211,42.9990,149.4774,275.8711,84.1899,0,U,66341,999,2195,.98537822E-3,.26979E-3,0
STARLINK-35535,2025-253Z,2026-03-20T11:30:36.360864,15.27595139,.00013872,42.9985,151.6559,260.4455,99.6240,0,U,66342,999,2189,.85836621E-3,.23444E-3,0
STARLINK-35467,2025-253AA,2026-03-20T21:12:12.040416,15.27570222,.00007087,42.9994,149.5292,256.1451,103.9322,0,U,66343,999,2195,.11819973E-2,.32397E-3,0
STARLINK-35511,2025-253AB,2026-03-20T21:39:42.520608,15.27596369,.00013554,43.0014,148.8048,272.8219,87.2478,0,U,66344,999,2196,.72908175E-3,.19865E-3,0
STARLINK-35440,2025-253AC,2026-03-20T16:14:52.190016,15.27669152,.0001852,43.0008,150.5547,281.5000,78.5644,0,U,66345,999,2192,.20998E-2,.58137E-3,0
STARLINK-35482,2025-253AD,2026-03-20T22:00:04.113792,15.27596597,.00013668,43.0006,148.9132,264.9094,95.1602,0,U,66346,999,2196,.70891792E-3,.19307E-3,0
STARLINK-35438,2025-253AE,2026-03-20T21:47:07.237824,15.27605508,.00007105,43.0030,148.8432,55.6600,304.4319,0,U,66347,999,2196,.8608154E-3,.23519E-3,0
STARLINK-35849,2025-254A,2026-03-21T00:01:04.329984,15.30232000,.0001199,53.1595,180.1854,90.0345,270.0793,0,U,66348,999,2186,.13086412E-2,.38639E-3,0
STARLINK-35848,2025-254B,2026-03-20T23:29:09.123648,15.30219139,.00010764,53.1562,180.0491,84.5445,275.5679,0,U,66349,999,2070,.11889067E-2,.3504E-3,0
STARLINK-35829,2025-254C,2026-03-20T23:13:57.162144,15.30224504,.00007235,53.1576,179.9807,50.7231,309.3833,0,U,66350,999,2070,.11299286E-2,.33281E-3,0
STARLINK-35828,2025-254D,2026-03-20T13:40:31.394784,15.30198698,.00010866,53.1581,181.7627,76.1133,283.9989,0,U,66351,999,2064,.11555999E-2,.34022E-3,0
STARLINK-35850,2025-254E,2026-03-20T16:30:23.453280,15.30212741,.00014335,53.1595,181.0754,91.8983,268.2182,0,U,66352,999,2066,.75140729E-3,.2197E-3,0
STARLINK-35869,2025-254F,2026-03-20T16:21:16.458336,15.30209029,.00010169,53.1603,181.0366,80.8725,279.2391,0,U,66353,999,2066,.97162232E-3,.28536E-3,0
STARLINK-35895,2025-254G,2026-03-20T16:13:50.058048,15.30230803,.00002898,53.1632,181.7248,296.7241,63.3730,0,U,66354,999,2065,.94148968E-3,.27656E-3,0
STARLINK-35861,2025-254H,2026-03-20T23:54:59.040288,15.30213983,.00013017,53.1582,180.1572,93.7604,266.3545,0,U,66355,999,2070,.66968547E-3,.19536E-3,0
STARLINK-35851,2025-254J,2026-03-20T23:50:26.008512,15.30236315,.00011478,53.1591,180.1385,86.6196,273.4936,0,U,66356,999,2070,.11515687E-2,.33941E-3,0
STARLINK-35817,2025-254K,2026-03-21T06:00:02.999808,15.30167677,.0001457,53.1582,178.8437,90.1000,297.1561,0,U,66357,999,587,.18382176E-2,.54429E-3,0
STARLINK-35807,2025-254L,2026-03-20T23:32:11.705856,15.30209284,.00018952,53.1614,180.0582,83.5592,276.5625,0,U,66358,999,2070,.72208651E-3,.21094E-3,0
STARLINK-35805,2025-254M,2026-03-20T16:47:06.607392,15.30194446,.00012353,53.1580,181.1463,68.5370,291.5763,0,U,66359,999,2179,.7514823E-3,.2196E-3,0
STARLINK-35823,2025-254N,2026-03-20T16:28:52.463712,15.30211919,.00014271,53.1592,181.0675,87.0179,273.0985,0,U,66360,999,2066,.84790746E-3,.24847E-3,0
