STARLINK-35257          
1 66331U 25253N   26079.90900098  .00023641  00000+0  86544-3 0  9990
2 66331  43.0005 148.8570 0001231 265.2921  94.7790 15.27596009 21968
STARLINK-35322          
1 66332U 25253P   26079.91928461  .00016041  00000+0  59094-3 0  9992
2 66332  43.0015 148.9393 0001427 275.5566  84.5123 15.27593583 21961
STARLINK-35400          
1 66333U 25253Q   26080.00001157  .00025291  00000+0  92556-3 0  9996
2 66333  43.0019 149.0771 0001415 266.5822 290.3408 15.27574937  5877
STARLINK-35407          
1 66334U 25253R   26079.91156547  .00000257  00000+0  18844-4 0  9993
2 66334  43.0036 148.8837 0000500 349.5725  10.5116 15.27588656 21964
STARLINK-35417          
1 66335U 25253S   26079.54110039  .00011150  00000+0  41403-3 0  9999
2 66335  42.9996 151.2602 0001467 277.6480  82.4205 15.27584202 21902
STARLINK-35404          
1 66336U 25253T   26079.59749281  .00015915  00000+0  58639-3 0  9994
2 66336  43.0010 150.8190 0001626 280.2145  79.8523 15.27591901 21912
STARLINK-34783          
1 66337U 25253U   26079.89758324  .00019763  00000+0  72524-3 0  9990
2 66337  43.0026 149.6389 0001901 274.1352  85.9282 15.27604162 21952
STARLINK-35477          
1 66338U 25253V   26079.59620611  .00010334  00000+0  38449-3 0  9998
2 66338  43.0005 150.8158 0001283 258.2090 101.8618 15.27584499 21910
STARLINK-35443          
1 66339U 25253W   26079.47186175  .00016360  00000+0  60261-3 0  9990
2 66339  42.9992 151.5981 0000964 275.4098  84.6644 15.27585705 21895
STARLINK-35218          
1 66340U 25253X   26079.56038164  .00026994  00000+0  98642-3 0  9994
2 66340  43.0027 151.4020 0001441 275.5906  84.4781 15.27595459 21900
STARLINK-35522          
1 66341U 25253Y   26079.87702228  .00026979  00000+0  98538-3 0  9995
2 66341  42.9990 149.4774 0002121 275.8711  84.1899 15.27610806 21950
STARLINK-35535          
1 66342U 25253Z   26079.47958751  .00023444  00000+0  85837-3 0  9998
2 66342  42.9985 151.6559 0001387 260.4455  99.6240 15.27595139 21894
STARLINK-35467          
1 66343U 25253AA  26079.88347269  .00032397  00000+0  11820-2 0  9997
2 66343  42.9994 149.5292 0000708 256.1451 103.9322 15.27570222 21952
STARLINK-35511          
1 66344U 25253AB  26079.90257547  .00019865  00000+0  72908-3 0  9990
2 66344  43.0014 148.8048 0001355 272.8219  87.2478 15.27596369 21962
STARLINK-35440          
1 66345U 25253AC  26079.67699294  .00058137  00000+0  20998-2 0  9990
2 66345  43.0008 150.5547 0001852 281.5000  78.5644 15.27669152 21922
STARLINK-35482          
1 66346U 25253AD  26079.91671428  .00019307  00000+0  70892-3 0  9992
2 66346  43.0006 148.9132 0001366 264.9094  95.1602 15.27596597 21965
STARLINK-35438          
1 66347U 25253AE  26079.90772266  .00023519  00000+0  86082-3 0  9992
2 66347  43.0030 148.8432 0000710  55.6600 304.4319 15.27605508 21969
STARLINK-35849          
1 66348U 25254A   26080.00074456  .00038639  00000+0  13086-2 0  9995
2 66348  53.1595 180.1854 0001199  90.0345 270.0793 15.30232000 21866
STARLINK-35848          
1 66349U 25254B   26079.97857782  .00035040  00000+0  11889-2 0  9993
2 66349  53.1562 180.0491 0001076  84.5445 275.5679 15.30219139 20703
STARLINK-35829          
1 66350U 25254C   26079.96802271  .00033281  00000+0  11299-2 0  9997
2 66350  53.1576 179.9807 0000723  50.7231 309.3833 15.30224504 20704
STARLINK-35828          
1 66351U 25254D   26079.56980781  .00034022  00000+0  11556-2 0  9997
2 66351  53.1581 181.7627 0001086  76.1133 283.9989 15.30198698 20644
STARLINK-35850          
1 66352U 25254E   26079.68777145  .00021970  00000+0  75141-3 0  9998
2 66352  53.1595 181.0754 0001433  91.8983 268.2182 15.30212741 20666
STARLINK-35869          
1 66353U 25254F   26079.68144049  .00028536  00000+0  97162-3 0  9992
2 66353  53.1603 181.0366 0001016  80.8725 279.2391 15.30209029 20664
STARLINK-35895          
1 66354U 25254G   26079.67627382  .00027656  00000+0  94149-3 0  9992
2 66354  53.1632 181.7248 0000289 296.7241  63.3730 15.30230803 20657
STARLINK-35861          
1 66355U 25254H   26079.99651667  .00019536  00000+0  66969-3 0  9998
2 66355  53.1582 180.1572 0001301  93.7604 266.3545 15.30213983 20704
STARLINK-35851          
1 66356U 25254J   26079.99335658  .00033941  00000+0  11516-2 0  9991
2 66356  53.1591 180.1385 0001147  86.6196 273.4936 15.30236315 20709
STARLINK-35817          
1 66357U 25254K   26080.25003472  .00054429  00000+0  18382-2 0  9991
2 66357  53.1582 178.8437 0001457  90.1000 297.1561 15.30167677  5872
STARLINK-35807          
1 66358U 25254L   26079.98069104  .00021094  00000+0  72209-3 0  9995
2 66358  53.1614 180.0582 0001895  83.5592 276.5625 15.30209284 20705
STARLINK-35805          
1 66359U 25254M   26079.69938203  .00021960  00000+0  75148-3 0  9996
2 66359  53.1580 181.1463 0001235  68.5370 291.5763 15.30194446 21796
STARLINK-35823          
1 66360U 25254N   26079.68671833  .00024847  00000+0  84791-3 0  9991
2 66360  53.1592 181.0675 0001427  87.0179 273.0985 15.30211919 20662
